0 IRIDIUM 126
1 42809U 17039G   24188.76558715  .00000243  00000-0  79773-4 0  9996
2 42809  86.3970 290.5150 0002103 100.3931 259.7502 14.34216478368123
0 IRIDIUM 124
1 42810U 17039H   24189.17401488  .00000473  00000-0  13460-3 0  9993
2 42810  86.4492 227.0767 0002664  89.9071 270.2436 14.43287804372707
0 IRIDIUM 128
1 42811U 17039J   24188.89586807  .00000415  00000-0  14095-3 0  9992
2 42811  86.3982 321.9907 0002317  97.5010 262.6449 14.34217112368174
0 IRIDIUM 121
1 42812U 17039K   24188.78462231  .00000197  00000-0  63211-4 0  9997
2 42812  86.3970 290.5297 0002347  94.1469 265.9995 14.34216482368002
0 IRIDIUM 133
1 42955U 17061A   24188.92757739  .00000084  00000-0  22785-4 0  9992
2 42955  86.3983 322.0775 0002095  97.1039 263.0395 14.34215750352971
0 IRIDIUM 100
1 42956U 17061B   24188.85146635  .00000236  00000-0  77110-4 0  9993
2 42956  86.3982 322.0446 0002093  95.0007 265.1428 14.34218632352967
0 IRIDIUM 122
1 42957U 17061C   24188.88952309  .00000403  00000-0  13678-3 0  9994
2 42957  86.3982 322.0271 0002140  97.3021 262.8418 14.34217403352977
0 IRIDIUM 129
1 42958U 17061D   24188.84512355  .00000019  00000-0 -13498-6 0  9991
2 42958  86.3982 322.1050 0002082 102.0463 258.0966 14.34214391352982
